[{"OBJECT_NAME":"STARLINK-30480","OBJECT_ID":"2023-158U","EPOCH":"2026-03-09T12:13:58.064448","MEAN_MOTION":15.27582544,"ECCENTRICITY":0.00035568,"INCLINATION":42.9995,"RA_OF_ASC_NODE":245.8442,"ARG_OF_PERICENTER":286.239,"MEAN_ANOMALY":73.807,"EPHEMERIS_TYPE":0,"CLASSIFICATION_TYPE":"U","NORAD_CAT_ID":58069,"ELEMENT_SET_NO":999,"REV_AT_EPOCH":13521,"BSTAR":0.00032269699,"MEAN_MOTION_DOT":8.629e-5,"MEAN_MOTION_DDOT":0},{"OBJECT_NAME":"TEVEL2-2","OBJECT_ID":"2025-052K","EPOCH":"2026-03-09T15:33:48.895776","MEAN_MOTION":15.30343745,"ECCENTRICITY":0.0004693,"INCLINATION":97.3987,"RA_OF_ASC_NODE":324.77,"ARG_OF_PERICENTER":105.793,"MEAN_ANOMALY":254.3828,"EPHEMERIS_TYPE":0,"CLASSIFICATION_TYPE":"U","NORAD_CAT_ID":63219,"ELEMENT_SET_NO":999,"REV_AT_EPOCH":5485,"BSTAR":0.00069428,"MEAN_MOTION_DOT":0.00020339,"MEAN_MOTION_DDOT":0}]
